DTUSAT-2                
1 40030U 14033W   26177.94650034  .00007887  00000+0  42437-3 0  9994
2 40030  98.0863 176.2936 0007657 189.0308 171.0786 15.15135070654161
QB50P2                  
1 40032U 14033Y   26177.93986302  .00007905  00000+0  42349-3 0  9998
2 40032  98.0751 175.4276 0008808 134.4942 225.7010 15.15279708654146
PERSEUS-M1              
1 40039U 14033AF  26178.07145687  .00001904  00000+0  17656-3 0  9990
2 40039  97.9648 122.3656 0009804 264.1554  95.8549 14.95665219652117
POLYITAN-1              
1 40042U 14033AJ  26178.03640310  .00020395  00000+0  62898-3 0  9996
2 40042  98.0939 205.2302 0008865 114.7933 245.4230 15.33595602655105
TIGRISAT                
1 40043U 14033AK  26178.15445450  .00001856  00000+0  21812-3 0  9990
2 40043  97.7841 327.9382 0050094  43.2551 317.2581 14.85196626647104
CANX-4                  
1 40055U 14034C   26178.21686772  .00000942  00000+0  12806-3 0  9993
2 40055  98.3111  53.8976 0012394 345.1677  14.9169 14.81281845646018
CANX-5                  
1 40056U 14034D   26178.21518419  .00000937  00000+0  12736-3 0  9992
2 40056  98.3113  53.9400 0012392 345.4382  14.6471 14.81299077636825
GONETS-M 10             
1 40063U 14036C   26178.13212388 -.00000028  00000+0 -27468-3 0  9990
2 40063  82.5115 301.4968 0022926 119.8122 240.5241 12.42945891543480
METEOR-M 2              
1 40069U 14037A   26178.21136836  .00000316  00000+0  16394-3 0  9993
2 40069  98.5111 153.5947 0006268  19.1342 341.0070 14.21464558620746
DX1                     
1 40071U 14037C   26178.16605235  .00002037  00000+0  21759-3 0  9997
2 40071  98.3862 140.4732 0005895 235.1116 124.9546 14.90013230647592
UKUBE-1                 
1 40074U 14037F   26177.95219198  .00009082  00000+0  50852-3 0  9998
2 40074  98.4236 182.2506 0003059 116.7089 243.4453 15.13699275650039
GAOFEN-2                
1 40118U 14049A   26178.17633517  .00000184  00000+0  30697-4 0  9990
2 40118  98.0111 242.3739 0006795 190.2060 169.9015 14.80907438640714
BRITE-PL2 (HEWELIUSZ)   
1 40119U 14049B   26178.21460774  .00001744  00000+0  16618-3 0  9998
2 40119  97.9107 290.2923 0015339  77.8705 282.4232 14.94630549642945
CBERS 4                 
1 40336U 14079A   26178.21368764 -.00000023  00000+0  66172-5 0  9990
2 40336  98.3533 234.7307 0001536  54.1749 305.9580 14.35511226605393
SMAP                    
1 40376U 15003A   26178.13118985  .00000441  00000+0  94346-4 0  9997
2 40376  98.1276 185.0848 0001436  98.4514 261.6851 14.63374836609070
GONETS-M 11             
1 40552U 15020A   26178.15105684  .00000275  00000+0  19137-2 0  9994
2 40552  82.4869  24.7825 0016168 344.2167  15.8407 12.42878134509977
GONETS-M 12             
1 40553U 15020B   26178.20493541  .00000089  00000+0  56996-3 0  9991
2 40553  82.4903  25.8754 0014854 328.8863  31.1336 12.42891622509970
GONETS-M 13             
1 40554U 15020C   26178.17858497  .00000043  00000+0  24048-3 0  9996
2 40554  82.4865  24.5039 0013186 313.6592  46.3394 12.42871094509948
DMC3-FM1                
1 40715U 15032A   26178.17284293  .00000798  00000+0  97823-4 0  9994
2 40715  97.6456  42.9559 0006441  33.0949 327.0668 14.85748690591394
DMC3-FM2                
1 40716U 15032B   26178.19485481  .00001390  00000+0  16594-3 0  9993
2 40716  97.6512  44.5577 0007101  37.5622 322.6088 14.85757608591393
DMC3-FM3                
1 40717U 15032C   26178.21825141  .00000638  00000+0  79413-4 0  9992
2 40717  97.6565  46.3397 0006372  38.0593 322.1072 14.85745192591409
CARBONITE 1 (CBNT-1)    
1 40718U 15032D   26178.16438211  .00001456  00000+0  18251-3 0  9996
2 40718  97.6509 355.8131 0012959 261.8077  98.1668 14.83614095590824
LILACSAT-2              
1 40908U 15049K   26178.13957227  .00018715  00000+0  31484-3 0  9994
2 40908  97.4638 215.3605 0006460 201.3258 158.7726 15.51765050597292
COSMOS 2507 (RODNIK-S *)
1 40920U 15050A   26178.21353513  .00000030  00000+0  14257-3 0  9997
2 40920  82.4926  73.4277 0009760 335.2011  24.8598 12.42926913488101
COSMOS 2508 (RODNIK-S *)
1 40921U 15050B   26178.16865288  .00000010  00000+0  39377-5 0  9999
2 40921  82.4878  71.9570 0014771   6.0987 354.0270 12.42914301488080
COSMOS 2509 (RODNIK-S *)
1 40922U 15050C   26178.18923795  .00000036  00000+0  18747-3 0  9994
2 40922  82.4886  72.0475 0015429  22.4797 337.6955 12.42883907488127
